[{"OBJECT_NAME":"STARLINK-11387 [DTC]","OBJECT_ID":"2024-220C","EPOCH":"2026-02-05T20:29:23.924832","MEAN_MOTION":15.71040904,"ECCENTRICITY":0.0003299,"INCLINATION":42.9996,"RA_OF_ASC_NODE":235.1978,"ARG_OF_PERICENTER":245.6234,"MEAN_ANOMALY":114.429,"EPHEMERIS_TYPE":0,"CLASSIFICATION_TYPE":"U","NORAD_CAT_ID":62090,"ELEMENT_SET_NO":999,"REV_AT_EPOCH":7004,"BSTAR":0.002945,"MEAN_MOTION_DOT":0.00399543,"MEAN_MOTION_DDOT":0},{"OBJECT_NAME":"STARLINK-11389 [DTC]","OBJECT_ID":"2024-220D","EPOCH":"2026-02-05T14:15:31.029696","MEAN_MOTION":15.71076748,"ECCENTRICITY":0.0002606,"INCLINATION":43,"RA_OF_ASC_NODE":236.6882,"ARG_OF_PERICENTER":230.922,"MEAN_ANOMALY":129.1416,"EPHEMERIS_TYPE":0,"CLASSIFICATION_TYPE":"U","NORAD_CAT_ID":62091,"ELEMENT_SET_NO":999,"REV_AT_EPOCH":6990,"BSTAR":0.00298,"MEAN_MOTION_DOT":0.00405175,"MEAN_MOTION_DDOT":0},{"OBJECT_NAME":"STARLINK-11388 [DTC]","OBJECT_ID":"2024-220E","EPOCH":"2026-02-05T14:07:51.930336","MEAN_MOTION":15.70896067,"ECCENTRICITY":0.0001686,"INCLINATION":42.999,"RA_OF_ASC_NODE":236.6456,"ARG_OF_PERICENTER":292.0029,"MEAN_ANOMALY":68.066,"EPHEMERIS_TYPE":0,"CLASSIFICATION_TYPE":"U","NORAD_CAT_ID":62092,"ELEMENT_SET_NO":999,"REV_AT_EPOCH":6990,"BSTAR":0.00031689,"MEAN_MOTION_DOT":0.00040507,"MEAN_MOTION_DDOT":0},{"OBJECT_NAME":"STARLINK-11345 [DTC]","OBJECT_ID":"2024-220F","EPOCH":"2026-02-05T14:00:13.596480","MEAN_MOTION":15.70984182,"ECCENTRICITY":0.0002013,"INCLINATION":42.9998,"RA_OF_ASC_NODE":236.6036,"ARG_OF_PERICENTER":250.9024,"MEAN_ANOMALY":109.1626,"EPHEMERIS_TYPE":0,"CLASSIFICATION_TYPE":"U","NORAD_CAT_ID":62093,"ELEMENT_SET_NO":999,"REV_AT_EPOCH":6990,"BSTAR":0.0036684,"MEAN_MOTION_DOT":0.00502909,"MEAN_MOTION_DDOT":0},{"OBJECT_NAME":"STARLINK-11381 [DTC]","OBJECT_ID":"2024-220G","EPOCH":"2026-02-05T13:52:34.261248","MEAN_MOTION":15.71115736,"ECCENTRICITY":0.0004375,"INCLINATION":43.0037,"RA_OF_ASC_NODE":236.5618,"ARG_OF_PERICENTER":271.2273,"MEAN_ANOMALY":88.8094,"EPHEMERIS_TYPE":0,"CLASSIFICATION_TYPE":"U","NORAD_CAT_ID":62094,"ELEMENT_SET_NO":999,"REV_AT_EPOCH":6990,"BSTAR":0.0022949,"MEAN_MOTION_DOT":0.0030884,"MEAN_MOTION_DDOT":0},{"OBJECT_NAME":"STARLINK-11369 [DTC]","OBJECT_ID":"2024-220H","EPOCH":"2026-02-05T13:44:56.134752","MEAN_MOTION":15.70947773,"ECCENTRICITY":0.0002281,"INCLINATION":42.9985,"RA_OF_ASC_NODE":236.5174,"ARG_OF_PERICENTER":256.0806,"MEAN_ANOMALY":103.9808,"EPHEMERIS_TYPE":0,"CLASSIFICATION_TYPE":"U","NORAD_CAT_ID":62095,"ELEMENT_SET_NO":999,"REV_AT_EPOCH":7000,"BSTAR":0.0027945,"MEAN_MOTION_DOT":0.00376547,"MEAN_MOTION_DDOT":0},{"OBJECT_NAME":"STARLINK-11303 [DTC]","OBJECT_ID":"2024-220J","EPOCH":"2026-02-05T13:37:17.448384","MEAN_MOTION":15.70962331,"ECCENTRICITY":0.0001915,"INCLINATION":42.9992,"RA_OF_ASC_NODE":236.4752,"ARG_OF_PERICENTER":253.616,"MEAN_ANOMALY":106.4497,"EPHEMERIS_TYPE":0,"CLASSIFICATION_TYPE":"U","NORAD_CAT_ID":62096,"ELEMENT_SET_NO":999,"REV_AT_EPOCH":7000,"BSTAR":0.0030387,"MEAN_MOTION_DOT":0.00411503,"MEAN_MOTION_DDOT":0},{"OBJECT_NAME":"STARLINK-11367 [DTC]","OBJECT_ID":"2024-220K","EPOCH":"2026-02-05T16:32:45.612384","MEAN_MOTION":15.70898624,"ECCENTRICITY":0.0001935,"INCLINATION":42.9995,"RA_OF_ASC_NODE":235.666,"ARG_OF_PERICENTER":254.5373,"MEAN_ANOMALY":105.5281,"EPHEMERIS_TYPE":0,"CLASSIFICATION_TYPE":"U","NORAD_CAT_ID":62097,"ELEMENT_SET_NO":999,"REV_AT_EPOCH":7002,"BSTAR":0.0030499,"MEAN_MOTION_DOT":0.00411943,"MEAN_MOTION_DDOT":0},{"OBJECT_NAME":"STARLINK-11386 [DTC]","OBJECT_ID":"2024-220L","EPOCH":"2026-02-05T19:28:14.212704","MEAN_MOTION":15.70874455,"ECCENTRICITY":0.0001632,"INCLINATION":42.9988,"RA_OF_ASC_NODE":234.8578,"ARG_OF_PERICENTER":261.3996,"MEAN_ANOMALY":98.6687,"EPHEMERIS_TYPE":0,"CLASSIFICATION_TYPE":"U","NORAD_CAT_ID":62098,"ELEMENT_SET_NO":999,"REV_AT_EPOCH":6994,"BSTAR":0.0010174,"MEAN_MOTION_DOT":0.00132395,"MEAN_MOTION_DDOT":0},{"OBJECT_NAME":"STARLINK-11380 [DTC]","OBJECT_ID":"2024-220M","EPOCH":"2026-02-05T18:00:02.000160","MEAN_MOTION":15.70825541,"ECCENTRICITY":0.00018461,"INCLINATION":43.0006,"RA_OF_ASC_NODE":235.1546,"ARG_OF_PERICENTER":268.0808,"MEAN_ANOMALY":135.243,"EPHEMERIS_TYPE":0,"CLASSIFICATION_TYPE":"U","NORAD_CAT_ID":62099,"ELEMENT_SET_NO":999,"REV_AT_EPOCH":601,"BSTAR":-0.00023565031,"MEAN_MOTION_DOT":-0.00030558,"MEAN_MOTION_DDOT":0},{"OBJECT_NAME":"STARLINK-33566","OBJECT_ID":"2024-220N","EPOCH":"2026-02-05T00:20:46.275936","MEAN_MOTION":15.27619326,"ECCENTRICITY":0.00055369,"INCLINATION":42.9979,"RA_OF_ASC_NODE":15.3627,"ARG_OF_PERICENTER":304.1154,"MEAN_ANOMALY":55.9172,"EPHEMERIS_TYPE":0,"CLASSIFICATION_TYPE":"U","NORAD_CAT_ID":62100,"ELEMENT_SET_NO":999,"REV_AT_EPOCH":6836,"BSTAR":0.001780743,"MEAN_MOTION_DOT":0.00049143,"MEAN_MOTION_DDOT":0},{"OBJECT_NAME":"STARLINK-33545","OBJECT_ID":"2024-220P","EPOCH":"2026-02-05T10:49:31.932192","MEAN_MOTION":15.27620116,"ECCENTRICITY":2.749e-5,"INCLINATION":42.9965,"RA_OF_ASC_NODE":27.3555,"ARG_OF_PERICENTER":264.6727,"MEAN_ANOMALY":95.4093,"EPHEMERIS_TYPE":0,"CLASSIFICATION_TYPE":"U","NORAD_CAT_ID":62101,"ELEMENT_SET_NO":999,"REV_AT_EPOCH":6809,"BSTAR":0.0014998762,"MEAN_MOTION_DOT":0.00041293,"MEAN_MOTION_DDOT":0},{"OBJECT_NAME":"STARLINK-33562","OBJECT_ID":"2024-220Q","EPOCH":"2026-02-05T11:06:10.946880","MEAN_MOTION":15.27619559,"ECCENTRICITY":0.00011797,"INCLINATION":43.0022,"RA_OF_ASC_NODE":27.4466,"ARG_OF_PERICENTER":256.9161,"MEAN_ANOMALY":103.1559,"EPHEMERIS_TYPE":0,"CLASSIFICATION_TYPE":"U","NORAD_CAT_ID":62102,"ELEMENT_SET_NO":999,"REV_AT_EPOCH":6809,"BSTAR":0.0019368237,"MEAN_MOTION_DOT":0.00053487,"MEAN_MOTION_DDOT":0},{"OBJECT_NAME":"STARLINK-33554","OBJECT_ID":"2024-220R","EPOCH":"2026-02-05T09:09:49.389696","MEAN_MOTION":15.27603211,"ECCENTRICITY":0.00012817,"INCLINATION":43.001,"RA_OF_ASC_NODE":27.6973,"ARG_OF_PERICENTER":276.8028,"MEAN_ANOMALY":83.2678,"EPHEMERIS_TYPE":0,"CLASSIFICATION_TYPE":"U","NORAD_CAT_ID":62103,"ELEMENT_SET_NO":999,"REV_AT_EPOCH":6801,"BSTAR":0.0010811271,"MEAN_MOTION_DOT":0.00029629,"MEAN_MOTION_DDOT":0},{"OBJECT_NAME":"STARLINK-33555","OBJECT_ID":"2024-220S","EPOCH":"2026-02-05T00:32:59.877600","MEAN_MOTION":15.2759891,"ECCENTRICITY":4.204e-5,"INCLINATION":42.9992,"RA_OF_ASC_NODE":30.1602,"ARG_OF_PERICENTER":217.3157,"MEAN_ANOMALY":142.7665,"EPHEMERIS_TYPE":0,"CLASSIFICATION_TYPE":"U","NORAD_CAT_ID":62104,"ELEMENT_SET_NO":999,"REV_AT_EPOCH":6816,"BSTAR":0.0017207979,"MEAN_MOTION_DOT":0.00047423,"MEAN_MOTION_DDOT":0},{"OBJECT_NAME":"STARLINK-33559","OBJECT_ID":"2024-220V","EPOCH":"2026-02-05T08:18:12.741120","MEAN_MOTION":15.27660195,"ECCENTRICITY":4.452e-5,"INCLINATION":43.0047,"RA_OF_ASC_NODE":28.2879,"ARG_OF_PERICENTER":240.7007,"MEAN_ANOMALY":119.3801,"EPHEMERIS_TYPE":0,"CLASSIFICATION_TYPE":"U","NORAD_CAT_ID":62107,"ELEMENT_SET_NO":999,"REV_AT_EPOCH":6824,"BSTAR":0.0038467988,"MEAN_MOTION_DOT":0.00107408,"MEAN_MOTION_DDOT":0},{"OBJECT_NAME":"STARLINK-33553","OBJECT_ID":"2024-220W","EPOCH":"2026-02-05T08:07:07.141440","MEAN_MOTION":15.27566212,"ECCENTRICITY":7.63e-5,"INCLINATION":42.9997,"RA_OF_ASC_NODE":28.2306,"ARG_OF_PERICENTER":300.3895,"MEAN_ANOMALY":59.6882,"EPHEMERIS_TYPE":0,"CLASSIFICATION_TYPE":"U","NORAD_CAT_ID":62108,"ELEMENT_SET_NO":999,"REV_AT_EPOCH":6824,"BSTAR":0.0013027626,"MEAN_MOTION_DOT":0.00035746,"MEAN_MOTION_DDOT":0},{"OBJECT_NAME":"STARLINK-33556","OBJECT_ID":"2024-220X","EPOCH":"2026-02-05T15:37:31.964160","MEAN_MOTION":15.27579103,"ECCENTRICITY":0.0001339,"INCLINATION":42.9985,"RA_OF_ASC_NODE":26.2765,"ARG_OF_PERICENTER":269.2179,"MEAN_ANOMALY":90.8519,"EPHEMERIS_TYPE":0,"CLASSIFICATION_TYPE":"U","NORAD_CAT_ID":62109,"ELEMENT_SET_NO":999,"REV_AT_EPOCH":6831,"BSTAR":0.00097577,"MEAN_MOTION_DOT":0.00026685,"MEAN_MOTION_DDOT":0},{"OBJECT_NAME":"STARLINK-33551","OBJECT_ID":"2024-220Y","EPOCH":"2026-02-05T09:46:49.478304","MEAN_MOTION":15.27614404,"ECCENTRICITY":0.00012827,"INCLINATION":43.0052,"RA_OF_ASC_NODE":27.8887,"ARG_OF_PERICENTER":248.8435,"MEAN_ANOMALY":111.228,"EPHEMERIS_TYPE":0,"CLASSIFICATION_TYPE":"U","NORAD_CAT_ID":62110,"ELEMENT_SET_NO":999,"REV_AT_EPOCH":6825,"BSTAR":0.0014753555,"MEAN_MOTION_DOT":0.00040603,"MEAN_MOTION_DDOT":0},{"OBJECT_NAME":"STARLINK-32311","OBJECT_ID":"2024-222A","EPOCH":"2026-02-05T11:08:07.193760","MEAN_MOTION":15.2761363,"ECCENTRICITY":0.00014925,"INCLINATION":43.0019,"RA_OF_ASC_NODE":303.1975,"ARG_OF_PERICENTER":264.6996,"MEAN_ANOMALY":95.3685,"EPHEMERIS_TYPE":0,"CLASSIFICATION_TYPE":"U","NORAD_CAT_ID":62114,"ELEMENT_SET_NO":999,"REV_AT_EPOCH":6815,"BSTAR":0.0017584646,"MEAN_MOTION_DOT":0.00048496,"MEAN_MOTION_DDOT":0},{"OBJECT_NAME":"STARLINK-32470","OBJECT_ID":"2024-222B","EPOCH":"2026-02-05T19:09:16.546752","MEAN_MOTION":15.276337,"ECCENTRICITY":8.65e-5,"INCLINATION":42.9996,"RA_OF_ASC_NODE":316.1151,"ARG_OF_PERICENTER":256.6797,"MEAN_ANOMALY":103.3958,"EPHEMERIS_TYPE":0,"CLASSIFICATION_TYPE":"U","NORAD_CAT_ID":62115,"ELEMENT_SET_NO":999,"REV_AT_EPOCH":6802,"BSTAR":0.0022614,"MEAN_MOTION_DOT":0.00062599,"MEAN_MOTION_DDOT":0},{"OBJECT_NAME":"STARLINK-32502","OBJECT_ID":"2024-222C","EPOCH":"2026-02-05T11:49:56.725824","MEAN_MOTION":15.27599894,"ECCENTRICITY":8.801e-5,"INCLINATION":43.0004,"RA_OF_ASC_NODE":318.1259,"ARG_OF_PERICENTER":36.613,"MEAN_ANOMALY":323.4781,"EPHEMERIS_TYPE":0,"CLASSIFICATION_TYPE":"U","NORAD_CAT_ID":62116,"ELEMENT_SET_NO":999,"REV_AT_EPOCH":6788,"BSTAR":0.001368254,"MEAN_MOTION_DOT":0.00037604,"MEAN_MOTION_DDOT":0},{"OBJECT_NAME":"STARLINK-32521","OBJECT_ID":"2024-222D","EPOCH":"2026-02-05T19:21:03.084480","MEAN_MOTION":15.2760827,"ECCENTRICITY":0.0001218,"INCLINATION":43.0011,"RA_OF_ASC_NODE":312.6013,"ARG_OF_PERICENTER":260.9982,"MEAN_ANOMALY":99.0731,"EPHEMERIS_TYPE":0,"CLASSIFICATION_TYPE":"U","NORAD_CAT_ID":62117,"ELEMENT_SET_NO":999,"REV_AT_EPOCH":6791,"BSTAR":0.0013611,"MEAN_MOTION_DOT":0.00037414,"MEAN_MOTION_DDOT":0}]
